HBAZ ? EH1 ? P ? 20120704 1743 42.2471 GAU 0.02 -1.00e+00 -1.00e+00 -1.00e+00
ABAZ ? EHE ? P ? 20120704 1743 43.8898 GAU 0.02 -1.00e+00 -1.00e+00 -1.00e+00
AWAZ ? EH1 ? P ? 20120704 1743 42.5573 GAU 0.02 -1.00e+00 -1.00e+00 -1.00e+00
ETAZ ? EH1 ? P ? 20120704 1743 38.7993 GAU 0.02 -1.00e+00 -1.00e+00 -1.00e+00
ETAZ ? EH2 ? S ? 20120704 1743 44.3367 GAU 0.05 -1.00e+00 -1.00e+00 -1.00e+00
GRZ  ? HHE ? P ? 20120704 1743 47.8880 GAU 0.02 -1.00e+00 -1.00e+00 -1.00e+00
GRZ  ? HHN ? S ? 20120704 1744 0.5793  GAU 0.05 -1.00e+00 -1.00e+00 -1.00e+00
KBAZ ? EH1 ? P ? 20120704 1743 38.8534 GAU 0.02 -1.00e+00 -1.00e+00 -1.00e+00
KBAZ ? EH2 ? S ? 20120704 1743 44.0262 GAU 0.05 -1.00e+00 -1.00e+00 -1.00e+00
MKAZ ? HHE ? P ? 20120704 1743 34.4764 GAU 0.02 -1.00e+00 -1.00e+00 -1.00e+00
MKAZ ? HHN ? S ? 20120704 1743 36.9688 GAU 0.05 -1.00e+00 -1.00e+00 -1.00e+00
MTAZ ? EHE ? P ? 20120704 1743 40.8078 GAU 0.02 -1.00e+00 -1.00e+00 -1.00e+00
MTAZ ? EHN ? S ? 20120704 1743 48.2478 GAU 0.05 -1.00e+00 -1.00e+00 -1.00e+00
RVAZ ? EH1 ? P ? 20120704 1743 45.1079 GAU 0.02 -1.00e+00 -1.00e+00 -1.00e+00
TOZ  ? HHE ? P ? 20120704 1743 42.1547 GAU 0.02 -1.00e+00 -1.00e+00 -1.00e+00
TOZ  ? HHN ? S ? 20120704 1743 50.1779 GAU 0.05 -1.00e+00 -1.00e+00 -1.00e+00
WIAZ ? EHE ? P ? 20120704 1743 38.6954 GAU 0.02 -1.00e+00 -1.00e+00 -1.00e+00
WIAZ ? EHN ? S ? 20120704 1743 44.1927 GAU 0.05 -1.00e+00 -1.00e+00 -1.00e+00
WTAZ ? EHZ ? P ? 20120704 1743 44.6206 GAU 0.02 -1.00e+00 -1.00e+00 -1.00e+00
