TOZ  ? HHE ? P ? 20120305 1351 13.1745 GAU 0.02 -1.00e+00 -1.00e+00 -1.00e+00
ABAZ ? EHE ? P ? 20120305 1351 0.6284  GAU 0.02 -1.00e+00 -1.00e+00 -1.00e+00
ABAZ ? EHN ? S ? 20120305 1351 3.2483  GAU 0.05 -1.00e+00 -1.00e+00 -1.00e+00
AWAZ ? EH1 ? P ? 20120305 1351 8.6184  GAU 0.02 -1.00e+00 -1.00e+00 -1.00e+00
EPAZ ? EH1 ? P ? 20120305 1351 4.8963  GAU 0.02 -1.00e+00 -1.00e+00 -1.00e+00
EPAZ ? EH2 ? S ? 20120305 1351 10.1785 GAU 0.05 -1.00e+00 -1.00e+00 -1.00e+00
ETAZ ? EH1 ? P ? 20120305 1351 4.7284  GAU 0.02 -1.00e+00 -1.00e+00 -1.00e+00
ETAZ ? EH2 ? S ? 20120305 1351 10.2479 GAU 0.05 -1.00e+00 -1.00e+00 -1.00e+00
GRZ  ? HHE ? P ? 20120305 1351 6.4366  GAU 0.02 -1.00e+00 -1.00e+00 -1.00e+00
GRZ  ? HHN ? S ? 20120305 1351 12.9905 GAU 0.05 -1.00e+00 -1.00e+00 -1.00e+00
HBAZ ? EH1 ? P ? 20120305 1351 4.5073  GAU 0.02 -1.00e+00 -1.00e+00 -1.00e+00
HBAZ ? EH2 ? S ? 20120305 1351 9.5737  GAU 0.05 -1.00e+00 -1.00e+00 -1.00e+00
KBAZ ? EH1 ? P ? 20120305 1351 7.7043  GAU 0.02 -1.00e+00 -1.00e+00 -1.00e+00
KBAZ ? EH2 ? S ? 20120305 1351 15.1876 GAU 0.05 -1.00e+00 -1.00e+00 -1.00e+00
KUZ  ? HHE ? P ? 20120305 1351 8.3407  GAU 0.02 -1.00e+00 -1.00e+00 -1.00e+00
MKAZ ? HHE ? P ? 20120305 1351 7.4550  GAU 0.02 -1.00e+00 -1.00e+00 -1.00e+00
MKAZ ? HHN ? S ? 20120305 1351 15.5343 GAU 0.05 -1.00e+00 -1.00e+00 -1.00e+00
MTAZ ? EHE ? P ? 20120305 1351 1.8455  GAU 0.02 -1.00e+00 -1.00e+00 -1.00e+00
MTAZ ? EHN ? S ? 20120305 1351 5.4277  GAU 0.05 -1.00e+00 -1.00e+00 -1.00e+00
RVAZ ? EH1 ? P ? 20120305 1351 5.4122  GAU 0.02 -1.00e+00 -1.00e+00 -1.00e+00
RVAZ ? EH2 ? S ? 20120305 1351 11.2286 GAU 0.05 -1.00e+00 -1.00e+00 -1.00e+00
WIAZ ? EHE ? P ? 20120305 1351 1.9028  GAU 0.02 -1.00e+00 -1.00e+00 -1.00e+00
WIAZ ? EHN ? S ? 20120305 1351 5.4193  GAU 0.05 -1.00e+00 -1.00e+00 -1.00e+00
WTAZ ? EHZ ? P ? 20120305 1351 7.6702  GAU 0.02 -1.00e+00 -1.00e+00 -1.00e+00
