GRZ  ? HHE ? P ? 20120504 1216 39.2637 GAU 0.02 -1.00e+00 -1.00e+00 -1.00e+00
GRZ  ? HHE ? S ? 20120504 1216 52.0019 GAU 0.05 -1.00e+00 -1.00e+00 -1.00e+00
ABAZ ? EHE ? P ? 20120504 1216 32.6972 GAU 0.02 -1.00e+00 -1.00e+00 -1.00e+00
AWAZ ? EH1 ? P ? 20120504 1216 29.8282 GAU 0.02 -1.00e+00 -1.00e+00 -1.00e+00
AWAZ ? EH2 ? S ? 20120504 1216 35.8845 GAU 0.05 -1.00e+00 -1.00e+00 -1.00e+00
EPAZ ? EH1 ? P ? 20120504 1216 29.8183 GAU 0.02 -1.00e+00 -1.00e+00 -1.00e+00
EPAZ ? EH2 ? S ? 20120504 1216 35.4263 GAU 0.05 -1.00e+00 -1.00e+00 -1.00e+00
ETAZ ? EH1 ? P ? 20120504 1216 26.6498 GAU 0.02 -1.00e+00 -1.00e+00 -1.00e+00
ETAZ ? EH2 ? S ? 20120504 1216 30.3136 GAU 0.05 -1.00e+00 -1.00e+00 -1.00e+00
HBAZ ? EH1 ? P ? 20120504 1216 30.1777 GAU 0.02 -1.00e+00 -1.00e+00 -1.00e+00
HBAZ ? EH2 ? S ? 20120504 1216 36.1694 GAU 0.05 -1.00e+00 -1.00e+00 -1.00e+00
KBAZ ? EH1 ? P ? 20120504 1216 26.0681 GAU 0.02 -1.00e+00 -1.00e+00 -1.00e+00
KBAZ ? EH2 ? S ? 20120504 1216 29.4976 GAU 0.05 -1.00e+00 -1.00e+00 -1.00e+00
KUZ  ? HHE ? P ? 20120504 1216 33.5984 GAU 0.02 -1.00e+00 -1.00e+00 -1.00e+00
KUZ  ? HHN ? S ? 20120504 1216 43.9778 GAU 0.05 -1.00e+00 -1.00e+00 -1.00e+00
MKAZ ? HHE ? P ? 20120504 1216 23.3473 GAU 0.02 -1.00e+00 -1.00e+00 -1.00e+00
MKAZ ? HHN ? S ? 20120504 1216 24.4686 GAU 0.05 -1.00e+00 -1.00e+00 -1.00e+00
MTAZ ? EHE ? P ? 20120504 1216 29.2713 GAU 0.02 -1.00e+00 -1.00e+00 -1.00e+00
MTAZ ? EHN ? S ? 20120504 1216 34.7546 GAU 0.05 -1.00e+00 -1.00e+00 -1.00e+00
RVAZ ? EH1 ? P ? 20120504 1216 32.8549 GAU 0.02 -1.00e+00 -1.00e+00 -1.00e+00
RVAZ ? EH2 ? S ? 20120504 1216 41.0661 GAU 0.05 -1.00e+00 -1.00e+00 -1.00e+00
TOZ  ? HHE ? P ? 20120504 1216 34.2358 GAU 0.02 -1.00e+00 -1.00e+00 -1.00e+00
WIAZ ? EHE ? P ? 20120504 1216 28.5168 GAU 0.02 -1.00e+00 -1.00e+00 -1.00e+00
WIAZ ? EHN ? S ? 20120504 1216 33.1145 GAU 0.05 -1.00e+00 -1.00e+00 -1.00e+00
WTAZ ? EHZ ? P ? 20120504 1216 31.7182 GAU 0.02 -1.00e+00 -1.00e+00 -1.00e+00
