GRZ  ? HHE ? P ? 20121003 2337 18.8258 GAU 0.02 -1.00e+00 -1.00e+00 -1.00e+00
WTAZ ? EHZ ? P ? 20121003 2337 12.5386 GAU 0.02 -1.00e+00 -1.00e+00 -1.00e+00
ABAZ ? EHE ? P ? 20121003 2337 9.5075  GAU 0.02 -1.00e+00 -1.00e+00 -1.00e+00
ABAZ ? EHN ? S ? 20121003 2337 12.6965 GAU 0.05 -1.00e+00 -1.00e+00 -1.00e+00
AWAZ ? EH1 ? P ? 20121003 2337 13.3492 GAU 0.02 -1.00e+00 -1.00e+00 -1.00e+00
EPAZ ? EH1 ? P ? 20121003 2337 9.6555  GAU 0.02 -1.00e+00 -1.00e+00 -1.00e+00
EPAZ ? EH2 ? S ? 20121003 2337 12.5380 GAU 0.05 -1.00e+00 -1.00e+00 -1.00e+00
ETAZ ? EH1 ? P ? 20121003 2337 9.4216  GAU 0.02 -1.00e+00 -1.00e+00 -1.00e+00
ETAZ ? EH2 ? S ? 20121003 2337 12.2184 GAU 0.05 -1.00e+00 -1.00e+00 -1.00e+00
HBAZ ? EH1 ? P ? 20121003 2337 9.5711  GAU 0.02 -1.00e+00 -1.00e+00 -1.00e+00
HBAZ ? EH2 ? S ? 20121003 2337 12.4072 GAU 0.05 -1.00e+00 -1.00e+00 -1.00e+00
KBAZ ? EH1 ? P ? 20121003 2337 12.3305 GAU 0.02 -1.00e+00 -1.00e+00 -1.00e+00
KBAZ ? EH2 ? S ? 20121003 2337 17.3884 GAU 0.05 -1.00e+00 -1.00e+00 -1.00e+00
KUZ  ? HHE ? P ? 20121003 2337 17.7084 GAU 0.02 -1.00e+00 -1.00e+00 -1.00e+00
MKAZ ? HHE ? P ? 20121003 2337 12.9374 GAU 0.02 -1.00e+00 -1.00e+00 -1.00e+00
MKAZ ? HHN ? S ? 20121003 2337 18.4192 GAU 0.05 -1.00e+00 -1.00e+00 -1.00e+00
MTAZ ? EHE ? P ? 20121003 2337 7.1533  GAU 0.02 -1.00e+00 -1.00e+00 -1.00e+00
MTAZ ? EHN ? S ? 20121003 2337 8.3785  GAU 0.05 -1.00e+00 -1.00e+00 -1.00e+00
RVAZ ? EH1 ? P ? 20121003 2337 11.5034 GAU 0.02 -1.00e+00 -1.00e+00 -1.00e+00
RVAZ ? EH2 ? S ? 20121003 2337 15.6783 GAU 0.05 -1.00e+00 -1.00e+00 -1.00e+00
TOZ  ? HHE ? P ? 20121003 2337 24.9457 GAU 0.02 -1.00e+00 -1.00e+00 -1.00e+00
WIAZ ? EHE ? P ? 20121003 2337 9.1397  GAU 0.02 -1.00e+00 -1.00e+00 -1.00e+00
WIAZ ? EHN ? S ? 20121003 2337 11.5976 GAU 0.05 -1.00e+00 -1.00e+00 -1.00e+00
