EPAZ ? EH1 ? P ? 20120806 0345 17.0685 GAU 0.02 -1.00e+00 -1.00e+00 -1.00e+00
RVAZ ? EH1 ? P ? 20120806 0345 17.2399 GAU 0.02 -1.00e+00 -1.00e+00 -1.00e+00
WTAZ ? EHZ ? P ? 20120806 0345 19.5892 GAU 0.02 -1.00e+00 -1.00e+00 -1.00e+00
ABAZ ? EHE ? P ? 20120806 0345 11.9759 GAU 0.02 -1.00e+00 -1.00e+00 -1.00e+00
ABAZ ? EHN ? S ? 20120806 0345 14.4319 GAU 0.05 -1.00e+00 -1.00e+00 -1.00e+00
AWAZ ? EH1 ? P ? 20120806 0345 20.6991 GAU 0.02 -1.00e+00 -1.00e+00 -1.00e+00
ETAZ ? EH1 ? P ? 20120806 0345 17.0639 GAU 0.02 -1.00e+00 -1.00e+00 -1.00e+00
ETAZ ? EH2 ? S ? 20120806 0345 23.3442 GAU 0.05 -1.00e+00 -1.00e+00 -1.00e+00
GRZ  ? HHE ? P ? 20120806 0345 17.9828 GAU 0.02 -1.00e+00 -1.00e+00 -1.00e+00
HBAZ ? EH1 ? P ? 20120806 0345 16.5771 GAU 0.02 -1.00e+00 -1.00e+00 -1.00e+00
HBAZ ? EH2 ? S ? 20120806 0345 21.8418 GAU 0.05 -1.00e+00 -1.00e+00 -1.00e+00
KBAZ ? EH2 ? P ? 20120806 0345 20.0078 GAU 0.02 -1.00e+00 -1.00e+00 -1.00e+00
KUZ  ? HHE ? P ? 20120806 0345 20.9278 GAU 0.02 -1.00e+00 -1.00e+00 -1.00e+00
MKAZ ? HHE ? P ? 20120806 0345 19.9318 GAU 0.02 -1.00e+00 -1.00e+00 -1.00e+00
MKAZ ? HHN ? S ? 20120806 0345 28.5654 GAU 0.05 -1.00e+00 -1.00e+00 -1.00e+00
WIAZ ? EHE ? P ? 20120806 0345 14.5493 GAU 0.02 -1.00e+00 -1.00e+00 -1.00e+00
WIAZ ? EHN ? S ? 20120806 0345 18.8087 GAU 0.05 -1.00e+00 -1.00e+00 -1.00e+00
