ABAZ ? EHE ? P ? 20120824 0303 22.1383 GAU 0.02 -1.00e+00 -1.00e+00 -1.00e+00
AWAZ ? EH1 ? P ? 20120824 0303 17.5039 GAU 0.02 -1.00e+00 -1.00e+00 -1.00e+00
AWAZ ? EH2 ? S ? 20120824 0303 21.2212 GAU 0.05 -1.00e+00 -1.00e+00 -1.00e+00
EPAZ ? EH1 ? P ? 20120824 0303 17.6145 GAU 0.02 -1.00e+00 -1.00e+00 -1.00e+00
ETAZ ? EH1 ? P ? 20120824 0303 15.7169 GAU 0.02 -1.00e+00 -1.00e+00 -1.00e+00
HBAZ ? EH1 ? P ? 20120824 0303 17.7928 GAU 0.02 -1.00e+00 -1.00e+00 -1.00e+00
KUZ  ? HHE ? P ? 20120824 0303 29.1298 GAU 0.02 -1.00e+00 -1.00e+00 -1.00e+00
MKAZ ? HHE ? P ? 20120824 0303 19.2389 GAU 0.02 -1.00e+00 -1.00e+00 -1.00e+00
MKAZ ? HHN ? S ? 20120824 0303 24.1833 GAU 0.05 -1.00e+00 -1.00e+00 -1.00e+00
MTAZ ? EHE ? P ? 20120824 0303 18.7183 GAU 0.02 -1.00e+00 -1.00e+00 -1.00e+00
MTAZ ? EHN ? S ? 20120824 0303 23.4975 GAU 0.05 -1.00e+00 -1.00e+00 -1.00e+00
RVAZ ? EH1 ? P ? 20120824 0303 20.8506 GAU 0.02 -1.00e+00 -1.00e+00 -1.00e+00
RVAZ ? EH2 ? S ? 20120824 0303 26.8882 GAU 0.05 -1.00e+00 -1.00e+00 -1.00e+00
TOZ  ? HHE ? P ? 20120824 0303 30.8206 GAU 0.02 -1.00e+00 -1.00e+00 -1.00e+00
WIAZ ? EHE ? P ? 20120824 0303 20.3278 GAU 0.02 -1.00e+00 -1.00e+00 -1.00e+00
WIAZ ? EHN ? S ? 20120824 0303 25.3468 GAU 0.05 -1.00e+00 -1.00e+00 -1.00e+00
WTAZ ? EHZ ? P ? 20120824 0303 19.2088 GAU 0.02 -1.00e+00 -1.00e+00 -1.00e+00
