EPAZ ? EH1 ? P ? 20121218 0113 55.7028 GAU 0.02 -1.00e+00 -1.00e+00 -1.00e+00
GRZ  ? HHE ? P ? 20121218 0114 1.8980  GAU 0.02 -1.00e+00 -1.00e+00 -1.00e+00
KUZ  ? HHE ? P ? 20121218 0113 57.6676 GAU 0.02 -1.00e+00 -1.00e+00 -1.00e+00
RVAZ ? EH1 ? P ? 20121218 0113 53.7495 GAU 0.02 -1.00e+00 -1.00e+00 -1.00e+00
WIAZ ? EHE ? P ? 20121218 0113 50.3673 GAU 0.02 -1.00e+00 -1.00e+00 -1.00e+00
AWAZ ? EH1 ? P ? 20121218 0113 50.5333 GAU 0.02 -1.00e+00 -1.00e+00 -1.00e+00
AWAZ ? EH2 ? S ? 20121218 0113 55.9291 GAU 0.05 -1.00e+00 -1.00e+00 -1.00e+00
ETAZ ? EH1 ? P ? 20121218 0113 47.0744 GAU 0.02 -1.00e+00 -1.00e+00 -1.00e+00
ETAZ ? EH2 ? S ? 20121218 0113 49.9815 GAU 0.05 -1.00e+00 -1.00e+00 -1.00e+00
KBAZ ? EH1 ? P ? 20121218 0113 46.4457 GAU 0.02 -1.00e+00 -1.00e+00 -1.00e+00
KBAZ ? EH2 ? S ? 20121218 0113 48.4783 GAU 0.05 -1.00e+00 -1.00e+00 -1.00e+00
MBAZ ? EH1 ? P ? 20121218 0113 50.5886 GAU 0.02 -1.00e+00 -1.00e+00 -1.00e+00
MBAZ ? EH2 ? S ? 20121218 0113 55.7171 GAU 0.05 -1.00e+00 -1.00e+00 -1.00e+00
MKAZ ? HHE ? P ? 20121218 0113 46.9370 GAU 0.02 -1.00e+00 -1.00e+00 -1.00e+00
MKAZ ? HHN ? S ? 20121218 0113 49.4185 GAU 0.05 -1.00e+00 -1.00e+00 -1.00e+00
TOZ  ? HHE ? P ? 20121218 0113 58.7114 GAU 0.02 -1.00e+00 -1.00e+00 -1.00e+00
