RVAZ ? EH1 ? P ? 20130417 1122 18.8110 GAU 0.02 -1.00e+00 -1.00e+00 -1.00e+00
WTAZ ? EHZ ? P ? 20130417 1122 20.2881 GAU 0.02 -1.00e+00 -1.00e+00 -1.00e+00
ABAZ ? EHE ? P ? 20130417 1122 17.1171 GAU 0.02 -1.00e+00 -1.00e+00 -1.00e+00
ABAZ ? EHN ? S ? 20130417 1122 20.0265 GAU 0.05 -1.00e+00 -1.00e+00 -1.00e+00
AWAZ ? EH1 ? P ? 20130417 1122 20.7637 GAU 0.02 -1.00e+00 -1.00e+00 -1.00e+00
AWAZ ? EH2 ? S ? 20130417 1122 25.9344 GAU 0.05 -1.00e+00 -1.00e+00 -1.00e+00
EPAZ ? EH1 ? P ? 20130417 1122 17.1358 GAU 0.02 -1.00e+00 -1.00e+00 -1.00e+00
EPAZ ? EH2 ? S ? 20130417 1122 19.9473 GAU 0.05 -1.00e+00 -1.00e+00 -1.00e+00
ETAZ ? EH1 ? P ? 20130417 1122 16.8880 GAU 0.02 -1.00e+00 -1.00e+00 -1.00e+00
ETAZ ? EH2 ? S ? 20130417 1122 19.7979 GAU 0.05 -1.00e+00 -1.00e+00 -1.00e+00
HBAZ ? EH1 ? P ? 20130417 1122 17.1399 GAU 0.02 -1.00e+00 -1.00e+00 -1.00e+00
HBAZ ? EH2 ? S ? 20130417 1122 20.0977 GAU 0.05 -1.00e+00 -1.00e+00 -1.00e+00
KBAZ ? EH1 ? P ? 20130417 1122 19.7863 GAU 0.02 -1.00e+00 -1.00e+00 -1.00e+00
KBAZ ? EH2 ? S ? 20130417 1122 24.6173 GAU 0.05 -1.00e+00 -1.00e+00 -1.00e+00
KUZ  ? HHE ? P ? 20130417 1122 25.3617 GAU 0.02 -1.00e+00 -1.00e+00 -1.00e+00
KUZ  ? HHN ? S ? 20130417 1122 35.8802 GAU 0.05 -1.00e+00 -1.00e+00 -1.00e+00
MBAZ ? EH1 ? P ? 20130417 1122 14.6032 GAU 0.02 -1.00e+00 -1.00e+00 -1.00e+00
MBAZ ? EH2 ? S ? 20130417 1122 15.7584 GAU 0.05 -1.00e+00 -1.00e+00 -1.00e+00
MKAZ ? HHE ? P ? 20130417 1122 20.4443 GAU 0.02 -1.00e+00 -1.00e+00 -1.00e+00
MKAZ ? HHN ? S ? 20130417 1122 25.9300 GAU 0.05 -1.00e+00 -1.00e+00 -1.00e+00
WIAZ ? EHE ? P ? 20130417 1122 16.7453 GAU 0.02 -1.00e+00 -1.00e+00 -1.00e+00
WIAZ ? EHN ? S ? 20130417 1122 19.2175 GAU 0.05 -1.00e+00 -1.00e+00 -1.00e+00
