ABAZ ? EHE ? P ? 20130318 0252 8.8683  GAU 0.02 -1.00e+00 -1.00e+00 -1.00e+00
ABAZ ? EHN ? S ? 20130318 0252 11.9080 GAU 0.05 -1.00e+00 -1.00e+00 -1.00e+00
AWAZ ? EH1 ? P ? 20130318 0252 12.5796 GAU 0.02 -1.00e+00 -1.00e+00 -1.00e+00
AWAZ ? EH2 ? S ? 20130318 0252 18.3468 GAU 0.05 -1.00e+00 -1.00e+00 -1.00e+00
EPAZ ? EH1 ? P ? 20130318 0252 8.9097  GAU 0.02 -1.00e+00 -1.00e+00 -1.00e+00
ETAZ ? EH1 ? P ? 20130318 0252 8.6779  GAU 0.02 -1.00e+00 -1.00e+00 -1.00e+00
ETAZ ? EH2 ? S ? 20130318 0252 11.5346 GAU 0.05 -1.00e+00 -1.00e+00 -1.00e+00
HBAZ ? EH1 ? P ? 20130318 0252 8.9576  GAU 0.02 -1.00e+00 -1.00e+00 -1.00e+00
HBAZ ? EH2 ? S ? 20130318 0252 11.7180 GAU 0.05 -1.00e+00 -1.00e+00 -1.00e+00
KUZ  ? HHE ? P ? 20130318 0252 17.1591 GAU 0.02 -1.00e+00 -1.00e+00 -1.00e+00
MBAZ ? EH1 ? P ? 20130318 0252 6.4048  GAU 0.02 -1.00e+00 -1.00e+00 -1.00e+00
MBAZ ? EH2 ? S ? 20130318 0252 7.5885  GAU 0.05 -1.00e+00 -1.00e+00 -1.00e+00
MKAZ ? HHE ? P ? 20130318 0252 12.2372 GAU 0.02 -1.00e+00 -1.00e+00 -1.00e+00
MKAZ ? HHN ? S ? 20130318 0252 17.7469 GAU 0.05 -1.00e+00 -1.00e+00 -1.00e+00
RVAZ ? EH1 ? P ? 20130318 0252 10.7301 GAU 0.02 -1.00e+00 -1.00e+00 -1.00e+00
RVAZ ? EH2 ? S ? 20130318 0252 15.2118 GAU 0.05 -1.00e+00 -1.00e+00 -1.00e+00
WIAZ ? EHE ? P ? 20130318 0252 8.5488  GAU 0.02 -1.00e+00 -1.00e+00 -1.00e+00
WIAZ ? EHN ? S ? 20130318 0252 10.9303 GAU 0.05 -1.00e+00 -1.00e+00 -1.00e+00
