ABAZ ? EHE ? P ? 20130325 0828 11.0375 GAU 0.02 -1.00e+00 -1.00e+00 -1.00e+00
ABAZ ? EHN ? S ? 20130325 0828 14.2193 GAU 0.05 -1.00e+00 -1.00e+00 -1.00e+00
EPAZ ? EH1 ? P ? 20130325 0828 11.0205 GAU 0.02 -1.00e+00 -1.00e+00 -1.00e+00
EPAZ ? EH2 ? S ? 20130325 0828 13.8534 GAU 0.05 -1.00e+00 -1.00e+00 -1.00e+00
GRZ  ? HHE ? P ? 20130325 0828 20.4182 GAU 0.02 -1.00e+00 -1.00e+00 -1.00e+00
HBAZ ? EH1 ? P ? 20130325 0828 11.0487 GAU 0.02 -1.00e+00 -1.00e+00 -1.00e+00
HBAZ ? EH2 ? S ? 20130325 0828 13.8402 GAU 0.05 -1.00e+00 -1.00e+00 -1.00e+00
KBAZ ? EH1 ? P ? 20130325 0828 13.7002 GAU 0.02 -1.00e+00 -1.00e+00 -1.00e+00
KBAZ ? EH2 ? S ? 20130325 0828 18.6266 GAU 0.05 -1.00e+00 -1.00e+00 -1.00e+00
KUZ  ? HHE ? P ? 20130325 0828 19.5960 GAU 0.02 -1.00e+00 -1.00e+00 -1.00e+00
MBAZ ? EH1 ? P ? 20130325 0828 8.5173  GAU 0.02 -1.00e+00 -1.00e+00 -1.00e+00
MBAZ ? EH2 ? S ? 20130325 0828 9.5883  GAU 0.05 -1.00e+00 -1.00e+00 -1.00e+00
MKAZ ? HHE ? P ? 20130325 0828 14.3413 GAU 0.02 -1.00e+00 -1.00e+00 -1.00e+00
MKAZ ? HHN ? S ? 20130325 0828 19.8178 GAU 0.05 -1.00e+00 -1.00e+00 -1.00e+00
RVAZ ? EH1 ? P ? 20130325 0828 12.9710 GAU 0.02 -1.00e+00 -1.00e+00 -1.00e+00
RVAZ ? EH2 ? S ? 20130325 0828 17.2883 GAU 0.05 -1.00e+00 -1.00e+00 -1.00e+00
TOZ  ? HHE ? P ? 20130325 0828 26.2392 GAU 0.02 -1.00e+00 -1.00e+00 -1.00e+00
WIAZ ? EHE ? P ? 20130325 0828 10.6176 GAU 0.02 -1.00e+00 -1.00e+00 -1.00e+00
WIAZ ? EHN ? S ? 20130325 0828 12.9877 GAU 0.05 -1.00e+00 -1.00e+00 -1.00e+00
WTAZ ? EHZ ? P ? 20130325 0828 14.1682 GAU 0.02 -1.00e+00 -1.00e+00 -1.00e+00
