TOZ  ? HHE ? P ? 20130318 0843 59.8653 GAU 0.02 -1.00e+00 -1.00e+00 -1.00e+00
ABAZ ? EHE ? P ? 20130318 0843 44.4623 GAU 0.02 -1.00e+00 -1.00e+00 -1.00e+00
ABAZ ? EHN ? S ? 20130318 0843 47.2786 GAU 0.05 -1.00e+00 -1.00e+00 -1.00e+00
AWAZ ? EH1 ? P ? 20130318 0843 48.1980 GAU 0.02 -1.00e+00 -1.00e+00 -1.00e+00
AWAZ ? EH2 ? S ? 20130318 0843 53.9490 GAU 0.05 -1.00e+00 -1.00e+00 -1.00e+00
EPAZ ? EH1 ? P ? 20130318 0843 44.4892 GAU 0.02 -1.00e+00 -1.00e+00 -1.00e+00
EPAZ ? EH2 ? S ? 20130318 0843 47.0996 GAU 0.05 -1.00e+00 -1.00e+00 -1.00e+00
ETAZ ? EH1 ? P ? 20130318 0843 44.3069 GAU 0.02 -1.00e+00 -1.00e+00 -1.00e+00
ETAZ ? EH2 ? S ? 20130318 0843 47.0876 GAU 0.05 -1.00e+00 -1.00e+00 -1.00e+00
HBAZ ? EH1 ? P ? 20130318 0843 44.4579 GAU 0.02 -1.00e+00 -1.00e+00 -1.00e+00
HBAZ ? EH2 ? S ? 20130318 0843 47.2189 GAU 0.05 -1.00e+00 -1.00e+00 -1.00e+00
KUZ  ? HHE ? P ? 20130318 0843 52.7520 GAU 0.02 -1.00e+00 -1.00e+00 -1.00e+00
MBAZ ? EH1 ? P ? 20130318 0843 42.0167 GAU 0.02 -1.00e+00 -1.00e+00 -1.00e+00
MBAZ ? EH2 ? S ? 20130318 0843 43.1899 GAU 0.05 -1.00e+00 -1.00e+00 -1.00e+00
MKAZ ? HHE ? P ? 20130318 0843 47.8703 GAU 0.02 -1.00e+00 -1.00e+00 -1.00e+00
MKAZ ? HHN ? S ? 20130318 0843 53.3548 GAU 0.05 -1.00e+00 -1.00e+00 -1.00e+00
RVAZ ? EH1 ? P ? 20130318 0843 46.3565 GAU 0.02 -1.00e+00 -1.00e+00 -1.00e+00
RVAZ ? EH2 ? S ? 20130318 0843 50.6364 GAU 0.05 -1.00e+00 -1.00e+00 -1.00e+00
WIAZ ? EHE ? P ? 20130318 0843 44.1507 GAU 0.02 -1.00e+00 -1.00e+00 -1.00e+00
WIAZ ? EHN ? S ? 20130318 0843 46.6882 GAU 0.05 -1.00e+00 -1.00e+00 -1.00e+00
