ETAZ ? EH1 ? P ? 20130108 2205 28.8574 GAU 0.02 -1.00e+00 -1.00e+00 -1.00e+00
AWAZ ? EH1 ? P ? 20130108 2205 31.4014 GAU 0.02 -1.00e+00 -1.00e+00 -1.00e+00
AWAZ ? EH2 ? S ? 20130108 2205 36.8084 GAU 0.05 -1.00e+00 -1.00e+00 -1.00e+00
GRZ  ? HHE ? P ? 20130108 2205 43.9578 GAU 0.02 -1.00e+00 -1.00e+00 -1.00e+00
KBAZ ? EH1 ? P ? 20130108 2205 27.3487 GAU 0.02 -1.00e+00 -1.00e+00 -1.00e+00
KBAZ ? EH2 ? S ? 20130108 2205 29.3191 GAU 0.05 -1.00e+00 -1.00e+00 -1.00e+00
KUZ  ? HHE ? P ? 20130108 2205 39.4128 GAU 0.02 -1.00e+00 -1.00e+00 -1.00e+00
MKAZ ? HHE ? P ? 20130108 2205 27.8359 GAU 0.02 -1.00e+00 -1.00e+00 -1.00e+00
MKAZ ? HHN ? S ? 20130108 2205 30.8234 GAU 0.05 -1.00e+00 -1.00e+00 -1.00e+00
WIAZ ? EHE ? P ? 20130108 2205 32.0977 GAU 0.02 -1.00e+00 -1.00e+00 -1.00e+00
WIAZ ? EHN ? S ? 20130108 2205 37.8090 GAU 0.05 -1.00e+00 -1.00e+00 -1.00e+00
