KUZ  ? HHE ? P ? 20130702 2330 12.9985 GAU 0.02 -1.00e+00 -1.00e+00 -1.00e+00
WTAZ ? EHZ ? P ? 20130702 2330 7.6788  GAU 0.02 -1.00e+00 -1.00e+00 -1.00e+00
AWAZ ? EH1 ? P ? 20130702 2330 5.1775  GAU 0.02 -1.00e+00 -1.00e+00 -1.00e+00
AWAZ ? EH2 ? S ? 20130702 2330 10.3154 GAU 0.05 -1.00e+00 -1.00e+00 -1.00e+00
ETAZ ? EH1 ? P ? 20130702 2330 3.7863  GAU 0.02 -1.00e+00 -1.00e+00 -1.00e+00
GRZ  ? HHE ? P ? 20130702 2330 18.7432 GAU 0.02 -1.00e+00 -1.00e+00 -1.00e+00
KBAZ ? EH1 ? P ? 20130702 2330 1.7595  GAU 0.02 -1.00e+00 -1.00e+00 -1.00e+00
KBAZ ? EH2 ? S ? 20130702 2330 4.7393  GAU 0.05 -1.00e+00 -1.00e+00 -1.00e+00
MBAZ ? EH1 ? P ? 20130702 2330 6.8885  GAU 0.02 -1.00e+00 -1.00e+00 -1.00e+00
MKAZ ? HHE ? P ? 20130702 2330 1.8895  GAU 0.02 -1.00e+00 -1.00e+00 -1.00e+00
MKAZ ? HHN ? S ? 20130702 2330 5.4149  GAU 0.05 -1.00e+00 -1.00e+00 -1.00e+00
TOZ  ? HHE ? P ? 20130702 2330 10.9696 GAU 0.02 -1.00e+00 -1.00e+00 -1.00e+00
WIAZ ? EHE ? P ? 20130702 2330 6.8408  GAU 0.02 -1.00e+00 -1.00e+00 -1.00e+00
