TOZ  ? HHE ? P ? 20141222 0357 35.6894 GAU 0.02 -1.00e+00 -1.00e+00 -1.00e+00
WTAZ ? EHZ ? P ? 20141222 0357 27.5402 GAU 0.02 -1.00e+00 -1.00e+00 -1.00e+00
AWAZ ? EH1 ? P ? 20141222 0357 26.7525 GAU 0.02 -1.00e+00 -1.00e+00 -1.00e+00
AWAZ ? EH2 ? S ? 20141222 0357 31.9646 GAU 0.05 -1.00e+00 -1.00e+00 -1.00e+00
ETAZ ? EH1 ? P ? 20141222 0357 20.8872 GAU 0.02 -1.00e+00 -1.00e+00 -1.00e+00
ETAZ ? EH2 ? S ? 20141222 0357 22.7588 GAU 0.05 -1.00e+00 -1.00e+00 -1.00e+00
GRZ  ? HHE ? P ? 20141222 0357 35.8565 GAU 0.02 -1.00e+00 -1.00e+00 -1.00e+00
KUZ  ? HHE ? P ? 20141222 0357 32.1578 GAU 0.02 -1.00e+00 -1.00e+00 -1.00e+00
MBAZ ? EH1 ? P ? 20141222 0357 23.8185 GAU 0.02 -1.00e+00 -1.00e+00 -1.00e+00
MKAZ ? HHE ? P ? 20141222 0357 23.2587 GAU 0.02 -1.00e+00 -1.00e+00 -1.00e+00
MKAZ ? HHN ? S ? 20141222 0357 26.5212 GAU 0.05 -1.00e+00 -1.00e+00 -1.00e+00
WIAZ ? EHE ? P ? 20141222 0357 23.4352 GAU 0.02 -1.00e+00 -1.00e+00 -1.00e+00
WIAZ ? EHN ? S ? 20141222 0357 26.7283 GAU 0.05 -1.00e+00 -1.00e+00 -1.00e+00
