ABAZ ? EHE ? S ? 20141112 2002 45.2157 GAU 0.05 -1.00e+00 -1.00e+00 -1.00e+00
ABAZ ? EHN ? P ? 20141112 2002 42.0784 GAU 0.02 -1.00e+00 -1.00e+00 -1.00e+00
AWAZ ? EHZ ? S ? 20141112 2002 51.3434 GAU 0.05 -1.00e+00 -1.00e+00 -1.00e+00
AWAZ ? EHZ ? P ? 20141112 2002 45.7968 GAU 0.02 -1.00e+00 -1.00e+00 -1.00e+00
EPAZ ? EH1 ? S ? 20141112 2002 44.8871 GAU 0.05 -1.00e+00 -1.00e+00 -1.00e+00
EPAZ ? EH2 ? P ? 20141112 2002 42.1389 GAU 0.02 -1.00e+00 -1.00e+00 -1.00e+00
ETAZ ? EHZ ? S ? 20141112 2002 44.6644 GAU 0.05 -1.00e+00 -1.00e+00 -1.00e+00
ETAZ ? EHZ ? P ? 20141112 2002 41.9420 GAU 0.02 -1.00e+00 -1.00e+00 -1.00e+00
GRZ  ? HHZ ? P ? 20141112 2002 51.3584 GAU 0.02 -1.00e+00 -1.00e+00 -1.00e+00
GRZ  ? HHZ ? S ? 20141112 2003 1.2229  GAU 0.05 -1.00e+00 -1.00e+00 -1.00e+00
HBAZ ? EH1 ? S ? 20141112 2002 44.8905 GAU 0.05 -1.00e+00 -1.00e+00 -1.00e+00
HBAZ ? EH2 ? P ? 20141112 2002 42.0611 GAU 0.02 -1.00e+00 -1.00e+00 -1.00e+00
KUZ  ? HHZ ? P ? 20141112 2002 50.2781 GAU 0.02 -1.00e+00 -1.00e+00 -1.00e+00
MBAZ ? EH1 ? S ? 20141112 2002 40.7348 GAU 0.05 -1.00e+00 -1.00e+00 -1.00e+00
MBAZ ? EH2 ? P ? 20141112 2002 39.6387 GAU 0.02 -1.00e+00 -1.00e+00 -1.00e+00
MKAZ ? HHZ ? S ? 20141112 2002 50.5897 GAU 0.05 -1.00e+00 -1.00e+00 -1.00e+00
MKAZ ? HHZ ? P ? 20141112 2002 45.4866 GAU 0.02 -1.00e+00 -1.00e+00 -1.00e+00
RVAZ ? EHZ ? S ? 20141112 2002 48.2559 GAU 0.05 -1.00e+00 -1.00e+00 -1.00e+00
RVAZ ? EHZ ? P ? 20141112 2002 44.0213 GAU 0.02 -1.00e+00 -1.00e+00 -1.00e+00
TOZ  ? HHZ ? P ? 20141112 2002 57.3884 GAU 0.02 -1.00e+00 -1.00e+00 -1.00e+00
WIAZ ? EHZ ? S ? 20141112 2002 44.1766 GAU 0.05 -1.00e+00 -1.00e+00 -1.00e+00
WIAZ ? EHZ ? P ? 20141112 2002 41.7461 GAU 0.02 -1.00e+00 -1.00e+00 -1.00e+00
WTAZ ? EHZ ? P ? 20141112 2002 45.3460 GAU 0.02 -1.00e+00 -1.00e+00 -1.00e+00

