EPAZ ? EH1 ? P ? 20141117 2303 43.2681 GAU 0.02 -1.00e+00 -1.00e+00 -1.00e+00
ETAZ ? EH1 ? P ? 20141117 2303 40.4261 GAU 0.02 -1.00e+00 -1.00e+00 -1.00e+00
GRZ  ? HHE ? P ? 20141117 2303 48.8788 GAU 0.02 -1.00e+00 -1.00e+00 -1.00e+00
RVAZ ? EH1 ? P ? 20141117 2303 43.0119 GAU 0.02 -1.00e+00 -1.00e+00 -1.00e+00
ABAZ ? EHE ? P ? 20141117 2303 37.7387 GAU 0.02 -1.00e+00 -1.00e+00 -1.00e+00
AWAZ ? EH1 ? P ? 20141117 2303 47.2675 GAU 0.02 -1.00e+00 -1.00e+00 -1.00e+00
HBAZ ? EH1 ? P ? 20141117 2303 42.6786 GAU 0.02 -1.00e+00 -1.00e+00 -1.00e+00
KUZ  ? HHE ? P ? 20141117 2303 51.2818 GAU 0.02 -1.00e+00 -1.00e+00 -1.00e+00
MBAZ ? EH1 ? P ? 20141117 2303 40.6386 GAU 0.02 -1.00e+00 -1.00e+00 -1.00e+00
MKAZ ? HHE ? P ? 20141117 2303 47.8361 GAU 0.02 -1.00e+00 -1.00e+00 -1.00e+00
WIAZ ? EHE ? P ? 20141117 2303 43.0378 GAU 0.02 -1.00e+00 -1.00e+00 -1.00e+00
WTAZ ? EHZ ? P ? 20141117 2303 45.7801 GAU 0.02 -1.00e+00 -1.00e+00 -1.00e+00
