ETAZ ? EH1 ? P ? 20151005 0354 42.6382 GAU 0.02 -1.00e+00 -1.00e+00 -1.00e+00
ETAZ ? EH2 ? S ? 20151005 0354 44.1957 GAU 0.05 -1.00e+00 -1.00e+00 -1.00e+00
MBAZ ? EH1 ? P ? 20151005 0354 45.4676 GAU 0.02 -1.00e+00 -1.00e+00 -1.00e+00
MKAZ ? HHE ? P ? 20151005 0354 44.9384 GAU 0.02 -1.00e+00 -1.00e+00 -1.00e+00
MKAZ ? HHN ? S ? 20151005 0354 48.3326 GAU 0.05 -1.00e+00 -1.00e+00 -1.00e+00
WIAZ ? EHE ? P ? 20151005 0354 45.0682 GAU 0.02 -1.00e+00 -1.00e+00 -1.00e+00
WIAZ ? EHN ? S ? 20151005 0354 48.3457 GAU 0.05 -1.00e+00 -1.00e+00 -1.00e+00
