AWAZ ? EH1 ? P ? 20160527 0130 3.6791  GAU 0.02 -1.00e+00 -1.00e+00 -1.00e+00
ETAZ ? EH1 ? P ? 20160527 0130 1.2283  GAU 0.02 -1.00e+00 -1.00e+00 -1.00e+00
MBAZ ? EH1 ? P ? 20160527 0130 4.6174  GAU 0.02 -1.00e+00 -1.00e+00 -1.00e+00
MKAZ ? HHE ? P ? 20160527 0130 0.2578  GAU 0.02 -1.00e+00 -1.00e+00 -1.00e+00
MKAZ ? HHN ? S ? 20160527 0130 3.1283  GAU 0.05 -1.00e+00 -1.00e+00 -1.00e+00
