MBAZ ? EH1 ? P ? 20160726 0308 1.1677  GAU 0.02 -1.00e+00 -1.00e+00 -1.00e+00
MBAZ ? EH2 ? S ? 20160726 0308 7.1685  GAU 0.05 -1.00e+00 -1.00e+00 -1.00e+00
TOZ  ? HHE ? P ? 20160726 0308 4.6983  GAU 0.02 -1.00e+00 -1.00e+00 -1.00e+00
AWAZ ? EH1 ? P ? 20160726 0307 59.8748 GAU 0.02 -1.00e+00 -1.00e+00 -1.00e+00
AWAZ ? EH2 ? S ? 20160726 0308 5.1557  GAU 0.05 -1.00e+00 -1.00e+00 -1.00e+00
ETAZ ? EH1 ? P ? 20160726 0307 57.4590 GAU 0.02 -1.00e+00 -1.00e+00 -1.00e+00
ETAZ ? EH2 ? S ? 20160726 0308 0.3973  GAU 0.05 -1.00e+00 -1.00e+00 -1.00e+00
MKAZ ? HHE ? P ? 20160726 0307 56.3437 GAU 0.02 -1.00e+00 -1.00e+00 -1.00e+00
MKAZ ? HHN ? S ? 20160726 0307 58.9355 GAU 0.05 -1.00e+00 -1.00e+00 -1.00e+00
WIAZ ? EHE ? P ? 20160726 0308 0.2100  GAU 0.02 -1.00e+00 -1.00e+00 -1.00e+00
WIAZ ? EHN ? S ? 20160726 0308 6.0063  GAU 0.05 -1.00e+00 -1.00e+00 -1.00e+00
