KUZ  ? HHE ? P ? 20160428 0201 52.0682 GAU 0.02 -1.00e+00 -1.00e+00 -1.00e+00
RVAZ ? EH1 ? P ? 20160428 0201 45.9460 GAU 0.02 -1.00e+00 -1.00e+00 -1.00e+00
AWAZ ? EH1 ? P ? 20160428 0201 34.8481 GAU 0.02 -1.00e+00 -1.00e+00 -1.00e+00
AWAZ ? EH2 ? S ? 20160428 0201 40.2765 GAU 0.05 -1.00e+00 -1.00e+00 -1.00e+00
ETAZ ? EH1 ? P ? 20160428 0201 31.4380 GAU 0.02 -1.00e+00 -1.00e+00 -1.00e+00
ETAZ ? EH2 ? S ? 20160428 0201 34.3580 GAU 0.05 -1.00e+00 -1.00e+00 -1.00e+00
MBAZ ? EH1 ? P ? 20160428 0201 34.9383 GAU 0.02 -1.00e+00 -1.00e+00 -1.00e+00
MBAZ ? EH2 ? S ? 20160428 0201 40.1188 GAU 0.05 -1.00e+00 -1.00e+00 -1.00e+00
MKAZ ? HHE ? P ? 20160428 0201 31.3232 GAU 0.02 -1.00e+00 -1.00e+00 -1.00e+00
MKAZ ? HHN ? S ? 20160428 0201 33.8883 GAU 0.05 -1.00e+00 -1.00e+00 -1.00e+00
WIAZ ? EHE ? P ? 20160428 0201 34.6786 GAU 0.02 -1.00e+00 -1.00e+00 -1.00e+00
WIAZ ? EHN ? S ? 20160428 0201 39.6182 GAU 0.05 -1.00e+00 -1.00e+00 -1.00e+00
