GRZ  ? HHE ? P ? 20160424 0341 38.0084 GAU 0.02 -1.00e+00 -1.00e+00 -1.00e+00
GRZ  ? HHE ? S ? 20160424 0341 50.6264 GAU 0.05 -1.00e+00 -1.00e+00 -1.00e+00
ABAZ ? EHE ? P ? 20160424 0341 31.4985 GAU 0.02 -1.00e+00 -1.00e+00 -1.00e+00
ABAZ ? EHN ? S ? 20160424 0341 39.7331 GAU 0.05 -1.00e+00 -1.00e+00 -1.00e+00
AWAZ ? EH1 ? P ? 20160424 0341 28.5872 GAU 0.02 -1.00e+00 -1.00e+00 -1.00e+00
AWAZ ? EH2 ? S ? 20160424 0341 34.6305 GAU 0.05 -1.00e+00 -1.00e+00 -1.00e+00
EPAZ ? EH1 ? P ? 20160424 0341 28.5306 GAU 0.02 -1.00e+00 -1.00e+00 -1.00e+00
EPAZ ? EH2 ? S ? 20160424 0341 34.1597 GAU 0.05 -1.00e+00 -1.00e+00 -1.00e+00
ETAZ ? EH1 ? P ? 20160424 0341 25.3995 GAU 0.02 -1.00e+00 -1.00e+00 -1.00e+00
ETAZ ? EH2 ? S ? 20160424 0341 29.1478 GAU 0.05 -1.00e+00 -1.00e+00 -1.00e+00
HBAZ ? EH1 ? P ? 20160424 0341 28.9182 GAU 0.02 -1.00e+00 -1.00e+00 -1.00e+00
HBAZ ? EH2 ? S ? 20160424 0341 34.9569 GAU 0.05 -1.00e+00 -1.00e+00 -1.00e+00
KUZ  ? HHE ? P ? 20160424 0341 32.7279 GAU 0.02 -1.00e+00 -1.00e+00 -1.00e+00
KUZ  ? HHN ? S ? 20160424 0341 42.1104 GAU 0.05 -1.00e+00 -1.00e+00 -1.00e+00
MBAZ ? EH1 ? P ? 20160424 0341 28.3106 GAU 0.02 -1.00e+00 -1.00e+00 -1.00e+00
MBAZ ? EH2 ? S ? 20160424 0341 34.1567 GAU 0.05 -1.00e+00 -1.00e+00 -1.00e+00
MKAZ ? HHE ? P ? 20160424 0341 22.0870 GAU 0.02 -1.00e+00 -1.00e+00 -1.00e+00
MKAZ ? HHN ? S ? 20160424 0341 23.2278 GAU 0.05 -1.00e+00 -1.00e+00 -1.00e+00
RVAZ ? EH1 ? P ? 20160424 0341 31.6590 GAU 0.02 -1.00e+00 -1.00e+00 -1.00e+00
RVAZ ? EH2 ? S ? 20160424 0341 39.9977 GAU 0.05 -1.00e+00 -1.00e+00 -1.00e+00
TOZ  ? HHE ? P ? 20160424 0341 32.9985 GAU 0.02 -1.00e+00 -1.00e+00 -1.00e+00
TOZ  ? HHN ? S ? 20160424 0341 42.1799 GAU 0.05 -1.00e+00 -1.00e+00 -1.00e+00
WIAZ ? EHE ? P ? 20160424 0341 27.2492 GAU 0.02 -1.00e+00 -1.00e+00 -1.00e+00
WIAZ ? EHN ? S ? 20160424 0341 31.8181 GAU 0.05 -1.00e+00 -1.00e+00 -1.00e+00
WTAZ ? EHZ ? P ? 20160424 0341 30.5175 GAU 0.02 -1.00e+00 -1.00e+00 -1.00e+00
