AWAZ ? EH1 ? P ? 20170709 1702 48.0246 GAU 0.02 -1.00e+00 -1.00e+00 -1.00e+00
AWAZ ? EH2 ? S ? 20170709 1702 54.8027 GAU 0.05 -1.00e+00 -1.00e+00 -1.00e+00
EPAZ ? EH1 ? P ? 20170709 1702 48.1794 GAU 0.02 -1.00e+00 -1.00e+00 -1.00e+00
EPAZ ? EH2 ? S ? 20170709 1702 55.0771 GAU 0.05 -1.00e+00 -1.00e+00 -1.00e+00
ETAZ ? EH1 ? P ? 20170709 1702 45.0167 GAU 0.02 -1.00e+00 -1.00e+00 -1.00e+00
ETAZ ? EH2 ? S ? 20170709 1702 49.5878 GAU 0.05 -1.00e+00 -1.00e+00 -1.00e+00
GRZ  ? HHE ? P ? 20170709 1702 56.4984 GAU 0.02 -1.00e+00 -1.00e+00 -1.00e+00
GRZ  ? HHN ? S ? 20170709 1703 9.7749  GAU 0.05 -1.00e+00 -1.00e+00 -1.00e+00
HBAZ ? EH1 ? P ? 20170709 1702 48.5286 GAU 0.02 -1.00e+00 -1.00e+00 -1.00e+00
KUZ  ? HHE ? P ? 20170709 1702 50.1879 GAU 0.02 -1.00e+00 -1.00e+00 -1.00e+00
MBAZ ? EH1 ? P ? 20170709 1702 47.7782 GAU 0.02 -1.00e+00 -1.00e+00 -1.00e+00
MBAZ ? EH2 ? S ? 20170709 1702 55.3690 GAU 0.05 -1.00e+00 -1.00e+00 -1.00e+00
TOZ  ? HHE ? P ? 20170709 1702 49.9346 GAU 0.02 -1.00e+00 -1.00e+00 -1.00e+00
TOZ  ? HHN ? S ? 20170709 1702 58.0209 GAU 0.05 -1.00e+00 -1.00e+00 -1.00e+00
WIAZ ? EHE ? P ? 20170709 1702 46.3264 GAU 0.02 -1.00e+00 -1.00e+00 -1.00e+00
WIAZ ? EHN ? S ? 20170709 1702 51.7167 GAU 0.05 -1.00e+00 -1.00e+00 -1.00e+00
WTAZ ? EHZ ? P ? 20170709 1702 50.0284 GAU 0.02 -1.00e+00 -1.00e+00 -1.00e+00
