ABAZ ? EHE ? P ? 20181029 1440 47.5740 GAU 0.02 -1.00e+00 -1.00e+00 -1.00e+00
ABAZ ? EHN ? S ? 20181029 1440 52.1385 GAU 0.05 -1.00e+00 -1.00e+00 -1.00e+00
AWAZ ? EH1 ? P ? 20181029 1440 54.2995 GAU 0.02 -1.00e+00 -1.00e+00 -1.00e+00
EPAZ ? EH1 ? P ? 20181029 1440 50.7081 GAU 0.02 -1.00e+00 -1.00e+00 -1.00e+00
EPAZ ? EH2 ? S ? 20181029 1440 57.2318 GAU 0.05 -1.00e+00 -1.00e+00 -1.00e+00
ETAZ ? EH1 ? P ? 20181029 1440 49.8317 GAU 0.02 -1.00e+00 -1.00e+00 -1.00e+00
ETAZ ? EH2 ? S ? 20181029 1440 55.8835 GAU 0.05 -1.00e+00 -1.00e+00 -1.00e+00
GRZ  ? HHE ? P ? 20181029 1440 48.7637 GAU 0.02 -1.00e+00 -1.00e+00 -1.00e+00
GRZ  ? HHN ? S ? 20181029 1440 54.1021 GAU 0.05 -1.00e+00 -1.00e+00 -1.00e+00
HBAZ ? EH1 ? P ? 20181029 1440 50.5844 GAU 0.02 -1.00e+00 -1.00e+00 -1.00e+00
HBAZ ? EH2 ? S ? 20181029 1440 57.0098 GAU 0.05 -1.00e+00 -1.00e+00 -1.00e+00
KUZ  ? HHE ? P ? 20181029 1440 49.8872 GAU 0.02 -1.00e+00 -1.00e+00 -1.00e+00
KUZ  ? HHN ? S ? 20181029 1440 56.0587 GAU 0.05 -1.00e+00 -1.00e+00 -1.00e+00
MBAZ ? EH1 ? P ? 20181029 1440 47.5068 GAU 0.02 -1.00e+00 -1.00e+00 -1.00e+00
MBAZ ? EH2 ? S ? 20181029 1440 51.8776 GAU 0.05 -1.00e+00 -1.00e+00 -1.00e+00
MKAZ ? HHE ? P ? 20181029 1440 51.2687 GAU 0.02 -1.00e+00 -1.00e+00 -1.00e+00
RVAZ ? EH1 ? P ? 20181029 1440 51.9630 GAU 0.02 -1.00e+00 -1.00e+00 -1.00e+00
TOZ  ? HHE ? P ? 20181029 1441 2.2510  GAU 0.02 -1.00e+00 -1.00e+00 -1.00e+00
WIAZ ? EHE ? P ? 20181029 1440 45.9023 GAU 0.02 -1.00e+00 -1.00e+00 -1.00e+00
WIAZ ? EHN ? S ? 20181029 1440 48.8694 GAU 0.05 -1.00e+00 -1.00e+00 -1.00e+00
WTAZ ? EHZ ? P ? 20181029 1440 53.7846 GAU 0.02 -1.00e+00 -1.00e+00 -1.00e+00
