TOZ  ? HHE ? P ? 20181003 0031 13.2688 GAU 0.02 -1.00e+00 -1.00e+00 -1.00e+00
AWAZ ? EH1 ? P ? 20181003 0031 5.4419  GAU 0.02 -1.00e+00 -1.00e+00 -1.00e+00
AWAZ ? EH2 ? S ? 20181003 0031 10.8569 GAU 0.05 -1.00e+00 -1.00e+00 -1.00e+00
GRZ  ? HHE ? P ? 20181003 0031 18.1930 GAU 0.02 -1.00e+00 -1.00e+00 -1.00e+00
KUZ  ? HHE ? P ? 20181003 0031 13.2050 GAU 0.02 -1.00e+00 -1.00e+00 -1.00e+00
MBAZ ? EH1 ? P ? 20181003 0031 6.3436  GAU 0.02 -1.00e+00 -1.00e+00 -1.00e+00
MBAZ ? EH2 ? S ? 20181003 0031 12.5385 GAU 0.05 -1.00e+00 -1.00e+00 -1.00e+00
MKAZ ? HHE ? P ? 20181003 0031 1.9519  GAU 0.02 -1.00e+00 -1.00e+00 -1.00e+00
MKAZ ? HHN ? S ? 20181003 0031 4.7467  GAU 0.05 -1.00e+00 -1.00e+00 -1.00e+00
WIAZ ? EHE ? P ? 20181003 0031 6.1958  GAU 0.02 -1.00e+00 -1.00e+00 -1.00e+00
WIAZ ? EHN ? S ? 20181003 0031 11.6581 GAU 0.05 -1.00e+00 -1.00e+00 -1.00e+00
