HBAZ ? EH1 ? P ? 20191212 0400 45.3137 GAU 0.02 -1.00e+00 -1.00e+00 -1.00e+00
ABAZ ? EHE ? P ? 20191212 0400 47.8241 GAU 0.02 -1.00e+00 -1.00e+00 -1.00e+00
AWAZ ? EH1 ? P ? 20191212 0400 46.7205 GAU 0.02 -1.00e+00 -1.00e+00 -1.00e+00
EPAZ ? EH1 ? P ? 20191212 0400 45.4978 GAU 0.02 -1.00e+00 -1.00e+00 -1.00e+00
ETAZ ? EH1 ? P ? 20191212 0400 41.0822 GAU 0.02 -1.00e+00 -1.00e+00 -1.00e+00
GRZ  ? HHE ? P ? 20191212 0400 56.1734 GAU 0.02 -1.00e+00 -1.00e+00 -1.00e+00
KBAZ ? EH1 ? P ? 20191212 0400 42.7938 GAU 0.02 -1.00e+00 -1.00e+00 -1.00e+00
KUZ  ? HHE ? P ? 20191212 0400 52.2710 GAU 0.02 -1.00e+00 -1.00e+00 -1.00e+00
MBAZ ? EH1 ? P ? 20191212 0400 43.9734 GAU 0.02 -1.00e+00 -1.00e+00 -1.00e+00
MKAZ ? HHE ? P ? 20191212 0400 43.5471 GAU 0.02 -1.00e+00 -1.00e+00 -1.00e+00
TOZ  ? HHE ? P ? 20191212 0400 56.5338 GAU 0.02 -1.00e+00 -1.00e+00 -1.00e+00
WIAZ ? EHE ? P ? 20191212 0400 43.6581 GAU 0.02 -1.00e+00 -1.00e+00 -1.00e+00
