KUZ  ? HHE ? P ? 20190531 0121 43.2607 GAU 0.02 -1.00e+00 -1.00e+00 -1.00e+00
AWAZ ? EH1 ? P ? 20190531 0121 35.2401 GAU 0.02 -1.00e+00 -1.00e+00 -1.00e+00
AWAZ ? EH2 ? S ? 20190531 0121 41.6363 GAU 0.05 -1.00e+00 -1.00e+00 -1.00e+00
ETAZ ? EH1 ? P ? 20190531 0121 32.9829 GAU 0.02 -1.00e+00 -1.00e+00 -1.00e+00
ETAZ ? EH2 ? S ? 20190531 0121 37.4838 GAU 0.05 -1.00e+00 -1.00e+00 -1.00e+00
KBAZ ? EH1 ? P ? 20190531 0121 31.6325 GAU 0.02 -1.00e+00 -1.00e+00 -1.00e+00
KBAZ ? EH2 ? S ? 20190531 0121 33.3903 GAU 0.05 -1.00e+00 -1.00e+00 -1.00e+00
MBAZ ? EH1 ? P ? 20190531 0121 36.9536 GAU 0.02 -1.00e+00 -1.00e+00 -1.00e+00
MBAZ ? EH2 ? S ? 20190531 0121 43.2155 GAU 0.05 -1.00e+00 -1.00e+00 -1.00e+00
MKAZ ? HHE ? P ? 20190531 0121 31.8865 GAU 0.02 -1.00e+00 -1.00e+00 -1.00e+00
TOZ  ? HHE ? P ? 20190531 0121 43.5938 GAU 0.02 -1.00e+00 -1.00e+00 -1.00e+00
