KBAZ ? EH1 ? P ? 20200714 0334 41.6742 GAU 0.02 -1.00e+00 -1.00e+00 -1.00e+00
ABAZ ? EHE ? P ? 20200714 0334 44.4278 GAU 0.02 -1.00e+00 -1.00e+00 -1.00e+00
AWAZ ? EH1 ? P ? 20200714 0334 43.5588 GAU 0.02 -1.00e+00 -1.00e+00 -1.00e+00
ETAZ ? EH1 ? P ? 20200714 0334 37.9920 GAU 0.02 -1.00e+00 -1.00e+00 -1.00e+00
GRZ  ? HHE ? P ? 20200714 0334 52.8256 GAU 0.02 -1.00e+00 -1.00e+00 -1.00e+00
MBAZ ? EH1 ? P ? 20200714 0334 40.9218 GAU 0.02 -1.00e+00 -1.00e+00 -1.00e+00
MKAZ ? HHE ? P ? 20200714 0334 40.4305 GAU 0.02 -1.00e+00 -1.00e+00 -1.00e+00
TOZ  ? HHE ? P ? 20200714 0334 53.5678 GAU 0.02 -1.00e+00 -1.00e+00 -1.00e+00
WIAZ ? EHE ? P ? 20200714 0334 40.5551 GAU 0.02 -1.00e+00 -1.00e+00 -1.00e+00
WIAZ ? EHN ? S ? 20200714 0334 43.9853 GAU 0.05 -1.00e+00 -1.00e+00 -1.00e+00
