HBAZ ? EH1 ? P ? 20211111 1023 36.1385 GAU 0.02 -1.00e+00 -1.00e+00 -1.00e+00
ABAZ ? EHE ? P ? 20211111 1023 31.9563 GAU 0.02 -1.00e+00 -1.00e+00 -1.00e+00
ABAZ ? EHN ? S ? 20211111 1023 34.9648 GAU 0.05 -1.00e+00 -1.00e+00 -1.00e+00
AWAZ ? EH1 ? P ? 20211111 1023 40.3635 GAU 0.02 -1.00e+00 -1.00e+00 -1.00e+00
ETAZ ? EH1 ? P ? 20211111 1023 36.1717 GAU 0.02 -1.00e+00 -1.00e+00 -1.00e+00
ETAZ ? EH2 ? S ? 20211111 1023 43.4477 GAU 0.05 -1.00e+00 -1.00e+00 -1.00e+00
GRZ  ? HHE ? P ? 20211111 1023 35.5447 GAU 0.02 -1.00e+00 -1.00e+00 -1.00e+00
GRZ  ? HHN ? S ? 20211111 1023 41.1350 GAU 0.05 -1.00e+00 -1.00e+00 -1.00e+00
KUZ  ? HHE ? P ? 20211111 1023 38.2912 GAU 0.02 -1.00e+00 -1.00e+00 -1.00e+00
KUZ  ? HHN ? S ? 20211111 1023 46.7760 GAU 0.05 -1.00e+00 -1.00e+00 -1.00e+00
MBAZ ? EH1 ? P ? 20211111 1023 33.1849 GAU 0.02 -1.00e+00 -1.00e+00 -1.00e+00
MKAZ ? HHE ? P ? 20211111 1023 38.5896 GAU 0.02 -1.00e+00 -1.00e+00 -1.00e+00
MKAZ ? HHN ? S ? 20211111 1023 47.1035 GAU 0.05 -1.00e+00 -1.00e+00 -1.00e+00
RVAZ ? EH1 ? P ? 20211111 1023 36.7393 GAU 0.02 -1.00e+00 -1.00e+00 -1.00e+00
TOZ  ? HHE ? P ? 20211111 1023 49.6882 GAU 0.02 -1.00e+00 -1.00e+00 -1.00e+00
WIAZ ? EHE ? P ? 20211111 1023 33.0893 GAU 0.02 -1.00e+00 -1.00e+00 -1.00e+00
WIAZ ? EHN ? S ? 20211111 1023 37.0388 GAU 0.05 -1.00e+00 -1.00e+00 -1.00e+00
